[{"OBJECT_NAME":"IRIDIUM 107","OBJECT_ID":"2017-061F","EPOCH":"2026-03-09T22:26:14.574624","MEAN_MOTION":14.34217551,"ECCENTRICITY":0.00017516,"INCLINATION":86.3913,"RA_OF_ASC_NODE":66.7602,"ARG_OF_PERICENTER":87.4442,"MEAN_ANOMALY":272.6954,"EPHEMERIS_TYPE":0,"CLASSIFICATION_TYPE":"U","NORAD_CAT_ID":42960,"ELEMENT_SET_NO":999,"REV_AT_EPOCH":44059,"BSTAR":-3.536384e-6,"MEAN_MOTION_DOT":1.0e-7,"MEAN_MOTION_DDOT":0},{"OBJECT_NAME":"CZ-6A DEB","OBJECT_ID":"2024-140TW","EPOCH":"2026-03-09T13:39:56.312928","MEAN_MOTION":14.29719182,"ECCENTRICITY":0.002416,"INCLINATION":88.9729,"RA_OF_ASC_NODE":283.5681,"ARG_OF_PERICENTER":107.7139,"MEAN_ANOMALY":252.6696,"EPHEMERIS_TYPE":0,"CLASSIFICATION_TYPE":"U","NORAD_CAT_ID":61309,"ELEMENT_SET_NO":999,"REV_AT_EPOCH":7967,"BSTAR":0.0012693,"MEAN_MOTION_DOT":3.279e-5,"MEAN_MOTION_DDOT":0}]
